[{"OBJECT_NAME":"STARLINK-36089","OBJECT_ID":"2025-286Y","EPOCH":"2026-03-16T21:10:50.996352","MEAN_MOTION":15.30204139,"ECCENTRICITY":6.89e-5,"INCLINATION":53.1619,"RA_OF_ASC_NODE":325.3485,"ARG_OF_PERICENTER":112.1218,"MEAN_ANOMALY":247.9856,"EPHEMERIS_TYPE":0,"CLASSIFICATION_TYPE":"U","NORAD_CAT_ID":66947,"ELEMENT_SET_NO":999,"REV_AT_EPOCH":1651,"BSTAR":0.0008035,"MEAN_MOTION_DOT":0.00023517,"MEAN_MOTION_DDOT":0},{"OBJECT_NAME":"STARLINK-36116","OBJECT_ID":"2025-286Z","EPOCH":"2026-03-16T20:40:27.452640","MEAN_MOTION":15.30205881,"ECCENTRICITY":0.0001321,"INCLINATION":53.1604,"RA_OF_ASC_NODE":325.2144,"ARG_OF_PERICENTER":80.402,"MEAN_ANOMALY":279.7129,"EPHEMERIS_TYPE":0,"CLASSIFICATION_TYPE":"U","NORAD_CAT_ID":66948,"ELEMENT_SET_NO":999,"REV_AT_EPOCH":1650,"BSTAR":0.00057092,"MEAN_MOTION_DOT":0.00016591,"MEAN_MOTION_DDOT":0},{"OBJECT_NAME":"STARLINK-36096","OBJECT_ID":"2025-286AA","EPOCH":"2026-03-16T19:59:25.797408","MEAN_MOTION":15.30213056,"ECCENTRICITY":5.87e-5,"INCLINATION":53.1591,"RA_OF_ASC_NODE":325.0411,"ARG_OF_PERICENTER":95.0162,"MEAN_ANOMALY":265.0906,"EPHEMERIS_TYPE":0,"CLASSIFICATION_TYPE":"U","NORAD_CAT_ID":66949,"ELEMENT_SET_NO":999,"REV_AT_EPOCH":1651,"BSTAR":0.00067791,"MEAN_MOTION_DOT":0.0001978,"MEAN_MOTION_DDOT":0},{"OBJECT_NAME":"STARLINK-36111","OBJECT_ID":"2025-286AB","EPOCH":"2026-03-16T21:00:12.674016","MEAN_MOTION":15.30208194,"ECCENTRICITY":7.75e-5,"INCLINATION":53.1613,"RA_OF_ASC_NODE":325.301,"ARG_OF_PERICENTER":104.4981,"MEAN_ANOMALY":255.6105,"EPHEMERIS_TYPE":0,"CLASSIFICATION_TYPE":"U","NORAD_CAT_ID":66950,"ELEMENT_SET_NO":999,"REV_AT_EPOCH":1651,"BSTAR":0.00074923,"MEAN_MOTION_DOT":0.00021902,"MEAN_MOTION_DDOT":0},{"OBJECT_NAME":"STARLINK-35999","OBJECT_ID":"2025-286AC","EPOCH":"2026-03-16T20:46:32.367360","MEAN_MOTION":15.30217757,"ECCENTRICITY":0.0001724,"INCLINATION":53.1596,"RA_OF_ASC_NODE":325.2403,"ARG_OF_PERICENTER":59.6853,"MEAN_ANOMALY":300.4318,"EPHEMERIS_TYPE":0,"CLASSIFICATION_TYPE":"U","NORAD_CAT_ID":66951,"ELEMENT_SET_NO":999,"REV_AT_EPOCH":1651,"BSTAR":0.00072435,"MEAN_MOTION_DOT":0.00021167,"MEAN_MOTION_DDOT":0},{"OBJECT_NAME":"STARLINK-36122","OBJECT_ID":"2025-286AD","EPOCH":"2026-03-16T16:37:49.290240","MEAN_MOTION":15.30205866,"ECCENTRICITY":0.0001232,"INCLINATION":53.161,"RA_OF_ASC_NODE":326.2981,"ARG_OF_PERICENTER":114.8602,"MEAN_ANOMALY":245.2527,"EPHEMERIS_TYPE":0,"CLASSIFICATION_TYPE":"U","NORAD_CAT_ID":66952,"ELEMENT_SET_NO":999,"REV_AT_EPOCH":1648,"BSTAR":0.00072119,"MEAN_MOTION_DOT":0.00021065,"MEAN_MOTION_DDOT":0},{"OBJECT_NAME":"STARLINK-35887","OBJECT_ID":"2025-288A","EPOCH":"2026-03-16T18:48:39.913056","MEAN_MOTION":15.27578494,"ECCENTRICITY":0.0001305,"INCLINATION":43.0027,"RA_OF_ASC_NODE":343.2873,"ARG_OF_PERICENTER":271.0049,"MEAN_ANOMALY":89.0653,"EPHEMERIS_TYPE":0,"CLASSIFICATION_TYPE":"U","NORAD_CAT_ID":66959,"ELEMENT_SET_NO":999,"REV_AT_EPOCH":1637,"BSTAR":0.00091853,"MEAN_MOTION_DOT":0.00025099,"MEAN_MOTION_DDOT":0},{"OBJECT_NAME":"STARLINK-35879","OBJECT_ID":"2025-288B","EPOCH":"2026-03-15T19:36:39.848832","MEAN_MOTION":15.2757376,"ECCENTRICITY":0.00012162,"INCLINATION":43.0029,"RA_OF_ASC_NODE":348.9279,"ARG_OF_PERICENTER":240.811,"MEAN_ANOMALY":119.262,"EPHEMERIS_TYPE":0,"CLASSIFICATION_TYPE":"U","NORAD_CAT_ID":66960,"ELEMENT_SET_NO":999,"REV_AT_EPOCH":1622,"BSTAR":0.00068459393,"MEAN_MOTION_DOT":0.0001862,"MEAN_MOTION_DDOT":0},{"OBJECT_NAME":"STARLINK-35761","OBJECT_ID":"2025-288C","EPOCH":"2026-03-16T18:19:03.234432","MEAN_MOTION":15.2758039,"ECCENTRICITY":0.0001016,"INCLINATION":42.9987,"RA_OF_ASC_NODE":343.121,"ARG_OF_PERICENTER":276.132,"MEAN_ANOMALY":83.9416,"EPHEMERIS_TYPE":0,"CLASSIFICATION_TYPE":"U","NORAD_CAT_ID":66961,"ELEMENT_SET_NO":999,"REV_AT_EPOCH":1637,"BSTAR":0.00095609,"MEAN_MOTION_DOT":0.00026141,"MEAN_MOTION_DDOT":0},{"OBJECT_NAME":"STARLINK-35874","OBJECT_ID":"2025-288D","EPOCH":"2026-03-16T18:13:41.887776","MEAN_MOTION":15.27580407,"ECCENTRICITY":8.5e-6,"INCLINATION":42.9953,"RA_OF_ASC_NODE":343.9517,"ARG_OF_PERICENTER":192.3321,"MEAN_ANOMALY":167.7529,"EPHEMERIS_TYPE":0,"CLASSIFICATION_TYPE":"U","NORAD_CAT_ID":66962,"ELEMENT_SET_NO":999,"REV_AT_EPOCH":1636,"BSTAR":0.00054408,"MEAN_MOTION_DOT":0.0001474,"MEAN_MOTION_DDOT":0},{"OBJECT_NAME":"STARLINK-36133","OBJECT_ID":"2025-288E","EPOCH":"2026-03-15T19:38:29.942304","MEAN_MOTION":15.27547028,"ECCENTRICITY":0.0001602,"INCLINATION":43.005,"RA_OF_ASC_NODE":348.9344,"ARG_OF_PERICENTER":259.007,"MEAN_ANOMALY":101.0601,"EPHEMERIS_TYPE":0,"CLASSIFICATION_TYPE":"U","NORAD_CAT_ID":66963,"ELEMENT_SET_NO":999,"REV_AT_EPOCH":1622,"BSTAR":0.00012311995,"MEAN_MOTION_DOT":3.124e-5,"MEAN_MOTION_DDOT":0},{"OBJECT_NAME":"STARLINK-36104","OBJECT_ID":"2025-288F","EPOCH":"2026-03-16T18:00:45.886176","MEAN_MOTION":15.27581602,"ECCENTRICITY":0.0002214,"INCLINATION":43.0016,"RA_OF_ASC_NODE":343.8912,"ARG_OF_PERICENTER":263.5496,"MEAN_ANOMALY":96.5104,"EPHEMERIS_TYPE":0,"CLASSIFICATION_TYPE":"U","NORAD_CAT_ID":66964,"ELEMENT_SET_NO":999,"REV_AT_EPOCH":1636,"BSTAR":0.0009101,"MEAN_MOTION_DOT":0.00024868,"MEAN_MOTION_DDOT":0},{"OBJECT_NAME":"STARLINK-36067","OBJECT_ID":"2025-288G","EPOCH":"2026-03-16T18:35:43.024992","MEAN_MOTION":15.27562722,"ECCENTRICITY":0.0001502,"INCLINATION":43.0022,"RA_OF_ASC_NODE":343.2101,"ARG_OF_PERICENTER":284.9898,"MEAN_ANOMALY":75.0787,"EPHEMERIS_TYPE":0,"CLASSIFICATION_TYPE":"U","NORAD_CAT_ID":66965,"ELEMENT_SET_NO":999,"REV_AT_EPOCH":1637,"BSTAR":0.00066594,"MEAN_MOTION_DOT":0.00018099,"MEAN_MOTION_DDOT":0},{"OBJECT_NAME":"STARLINK-36139","OBJECT_ID":"2025-288H","EPOCH":"2026-03-16T18:37:33.953088","MEAN_MOTION":15.27571953,"ECCENTRICITY":0.0001575,"INCLINATION":43.0001,"RA_OF_ASC_NODE":343.2186,"ARG_OF_PERICENTER":254.3315,"MEAN_ANOMALY":105.7363,"EPHEMERIS_TYPE":0,"CLASSIFICATION_TYPE":"U","NORAD_CAT_ID":66966,"ELEMENT_SET_NO":999,"REV_AT_EPOCH":1637,"BSTAR":0.00076398,"MEAN_MOTION_DOT":0.00020815,"MEAN_MOTION_DDOT":0},{"OBJECT_NAME":"STARLINK-36136","OBJECT_ID":"2025-288J","EPOCH":"2026-03-16T18:52:21.702720","MEAN_MOTION":15.27582602,"ECCENTRICITY":0.0001661,"INCLINATION":42.9991,"RA_OF_ASC_NODE":343.2999,"ARG_OF_PERICENTER":247.6298,"MEAN_ANOMALY":112.4377,"EPHEMERIS_TYPE":0,"CLASSIFICATION_TYPE":"U","NORAD_CAT_ID":66967,"ELEMENT_SET_NO":999,"REV_AT_EPOCH":1637,"BSTAR":0.0009771,"MEAN_MOTION_DOT":0.00026726,"MEAN_MOTION_DDOT":0},{"OBJECT_NAME":"STARLINK-36152","OBJECT_ID":"2025-288K","EPOCH":"2026-03-16T19:25:40.200384","MEAN_MOTION":15.27579929,"ECCENTRICITY":0.000108,"INCLINATION":43.001,"RA_OF_ASC_NODE":343.4704,"ARG_OF_PERICENTER":245.9679,"MEAN_ANOMALY":114.106,"EPHEMERIS_TYPE":0,"CLASSIFICATION_TYPE":"U","NORAD_CAT_ID":66968,"ELEMENT_SET_NO":999,"REV_AT_EPOCH":1637,"BSTAR":0.00076377,"MEAN_MOTION_DOT":0.00020815,"MEAN_MOTION_DDOT":0},{"OBJECT_NAME":"STARLINK-36149","OBJECT_ID":"2025-288L","EPOCH":"2026-03-16T18:04:28.216704","MEAN_MOTION":15.2757856,"ECCENTRICITY":0.0001037,"INCLINATION":43.0005,"RA_OF_ASC_NODE":343.9125,"ARG_OF_PERICENTER":259.5212,"MEAN_ANOMALY":100.5523,"EPHEMERIS_TYPE":0,"CLASSIFICATION_TYPE":"U","NORAD_CAT_ID":66969,"ELEMENT_SET_NO":999,"REV_AT_EPOCH":1636,"BSTAR":0.00097372,"MEAN_MOTION_DOT":0.00026628,"MEAN_MOTION_DDOT":0},{"OBJECT_NAME":"STARLINK-35703","OBJECT_ID":"2025-288M","EPOCH":"2026-03-16T18:31:59.968704","MEAN_MOTION":15.27587156,"ECCENTRICITY":0.0001165,"INCLINATION":43.0008,"RA_OF_ASC_NODE":343.1847,"ARG_OF_PERICENTER":289.6877,"MEAN_ANOMALY":70.3848,"EPHEMERIS_TYPE":0,"CLASSIFICATION_TYPE":"U","NORAD_CAT_ID":66970,"ELEMENT_SET_NO":999,"REV_AT_EPOCH":1637,"BSTAR":0.00099539,"MEAN_MOTION_DOT":0.00027236,"MEAN_MOTION_DDOT":0},{"OBJECT_NAME":"STARLINK-35678","OBJECT_ID":"2025-288N","EPOCH":"2026-03-15T19:27:23.939136","MEAN_MOTION":15.27542503,"ECCENTRICITY":0.00011758,"INCLINATION":43.0026,"RA_OF_ASC_NODE":348.8743,"ARG_OF_PERICENTER":251.8709,"MEAN_ANOMALY":108.2015,"EPHEMERIS_TYPE":0,"CLASSIFICATION_TYPE":"U","NORAD_CAT_ID":66971,"ELEMENT_SET_NO":999,"REV_AT_EPOCH":1622,"BSTAR":0.00091290518,"MEAN_MOTION_DOT":0.00024915,"MEAN_MOTION_DDOT":0},{"OBJECT_NAME":"STARLINK-34846","OBJECT_ID":"2025-288P","EPOCH":"2026-03-16T18:43:06.985344","MEAN_MOTION":15.27576312,"ECCENTRICITY":0.0001222,"INCLINATION":43.0013,"RA_OF_ASC_NODE":343.2498,"ARG_OF_PERICENTER":269.5887,"MEAN_ANOMALY":90.4825,"EPHEMERIS_TYPE":0,"CLASSIFICATION_TYPE":"U","NORAD_CAT_ID":66972,"ELEMENT_SET_NO":999,"REV_AT_EPOCH":1637,"BSTAR":0.00092956,"MEAN_MOTION_DOT":0.00025403,"MEAN_MOTION_DDOT":0},{"OBJECT_NAME":"STARLINK-35778","OBJECT_ID":"2025-288Q","EPOCH":"2026-03-16T01:08:52.444608","MEAN_MOTION":15.27569189,"ECCENTRICITY":0.00020276,"INCLINATION":42.9967,"RA_OF_ASC_NODE":347.2119,"ARG_OF_PERICENTER":284.3161,"MEAN_ANOMALY":75.7466,"EPHEMERIS_TYPE":0,"CLASSIFICATION_TYPE":"U","NORAD_CAT_ID":66973,"ELEMENT_SET_NO":999,"REV_AT_EPOCH":1626,"BSTAR":0.0006694551,"MEAN_MOTION_DOT":0.000182,"MEAN_MOTION_DDOT":0},{"OBJECT_NAME":"STARLINK-35780","OBJECT_ID":"2025-288R","EPOCH":"2026-03-16T00:59:37.487904","MEAN_MOTION":15.27568296,"ECCENTRICITY":0.00022524,"INCLINATION":42.9948,"RA_OF_ASC_NODE":347.1629,"ARG_OF_PERICENTER":278.0058,"MEAN_ANOMALY":82.0538,"EPHEMERIS_TYPE":0,"CLASSIFICATION_TYPE":"U","NORAD_CAT_ID":66974,"ELEMENT_SET_NO":999,"REV_AT_EPOCH":1626,"BSTAR":0.0008091698,"MEAN_MOTION_DOT":0.00022064,"MEAN_MOTION_DDOT":0},{"OBJECT_NAME":"STARLINK-35777","OBJECT_ID":"2025-288S","EPOCH":"2026-03-16T18:11:50.765280","MEAN_MOTION":15.27570924,"ECCENTRICITY":0.0001524,"INCLINATION":42.9969,"RA_OF_ASC_NODE":343.944,"ARG_OF_PERICENTER":259.0894,"MEAN_ANOMALY":100.9786,"EPHEMERIS_TYPE":0,"CLASSIFICATION_TYPE":"U","NORAD_CAT_ID":66975,"ELEMENT_SET_NO":999,"REV_AT_EPOCH":1636,"BSTAR":0.00013634,"MEAN_MOTION_DOT":3.491e-5,"MEAN_MOTION_DDOT":0}]
